{"spkid": "20325395", "covariance": {"labels": ["e", "q", "tp", "node", "peri", "i"], "data": [["5.294987732035427E-15", "-4.929906263348804E-15", "-9.936853158142327E-13", "2.550742407990544E-14", "-1.096694436049233E-12", "1.648381429424927E-13"], ["-4.929906263348804E-15", "4.595492201110358E-15", "9.202847342736055E-13", "-2.692570433950079E-14", "1.015862531987187E-12", "-1.527924927312067E-13"], ["-9.936853158142327E-13", "9.202847342736055E-13", "2.269761718176998E-9", "1.186701454900996E-10", "2.571307976311609E-9", "-3.089961852290348E-10"], ["2.550742407990544E-14", "-2.692570433950079E-14", "1.186701454900996E-10", "6.410957904757132E-10", "-3.318330267312125E-10", "-6.10463700458406E-11"], ["-1.096694436049233E-12", "1.015862531987187E-12", "2.571307976311609E-9", "-3.318330267312125E-10", "3.347984554616725E-9", "-4.072102649278003E-10"], ["1.648381429424927E-13", "-1.527924927312067E-13", "-3.089961852290348E-10", "-6.10463700458406E-11", "-4.072102649278003E-10", "2.739782071782156E-10"]], "elements": [{"units": null, "title": "eccentricity", "value": ".09143532771064065", "sigma": 7.27666663523583e-08, "name": "e", "label": "e"}, {"units": "au", "title": "perihelion distance", "value": ".8474086362447536", "name": "q", "sigma": 6.77900597514883e-08, "label": "q"}, {"label": "tp", "title": "time of perihelion passage", "value": "2457796.727557986193", "units": "TDB", "sigma": 4.76420163109938e-05, "name": "tp"}, {"label": "node", "name": "om", "sigma": 2.53198694798317e-05, "units": "deg", "value": "278.6960965316995", "title": "longitude of the ascending node"}, {"units": "deg", "value": "118.1898328897958", "title": "argument of perihelion", "sigma": 5.78617710981674e-05, "name": "w", "label": "peri"}, {"sigma": 1.65522870679014e-05, "name": "i", "units": "deg", "title": "inclination", "value": "18.68312691137746", "label": "i"}], "epoch": "2457634.5"}, "elements": [{"value": ".09139835999244077", "title": "eccentricity", "units": null, "name": "e", "sigma": "7.283E-8", "label": "e"}, {"value": ".9326615848095281", "title": "semi-major axis", "units": "au", "sigma": "2.4795E-9", "name": "a", "label": "a"}, {"sigma": "6.7849E-8", "name": "q", "value": ".8474178455299866", "title": "perihelion distance", "units": "au", "label": "q"}, {"units": "deg", "title": "inclination; angle with respect to x-y ecliptic plane", "value": "18.68411678964851", "sigma": "1.6555E-5", "name": "i", "label": "i"}, {"title": "longitude of the ascending node", "value": "278.6503513089171", "units": "deg", "sigma": "2.5311E-5", "name": "om", "label": "node"}, {"label": "peri", "sigma": "5.7848E-5", "name": "w", "value": "118.2395412958723", "title": "argument of perihelion", "units": "deg"}, {"sigma": "5.4016E-5", "name": "ma", "title": "mean anomaly", "value": "124.2721669431269", "units": "deg", "label": "M"}, {"label": "tp", "value": "2461086.932012219209", "title": "time of perihelion passage", "units": "TDB", "name": "tp", "sigma": "4.924E-5"}, {"label": "period", "units": "d", "value": "328.9914114058652", "title": "sidereal orbital period", "sigma": "1.312E-6", "name": "per"}, {"label": "n", "name": "n", "sigma": "4.3637E-9", "units": "deg/d", "value": "1.094253489662928", "title": "mean motion"}, {"label": "Q", "units": "au", "value": "1.01790532408907", "title": "aphelion distance", "sigma": "2.7062E-9", "name": "ad"}], "epoch": "2461200.5"}